STARLINK-1434           
1 45712U 20035BH  26068.24137979  .00054112  00000+0  20295-2 0  9995
2 45712  53.0547  22.1128 0005343  88.0400 272.1210 15.26724568319325
STARLINK-33662          
1 63285U 25053W   26068.48589200  .00034886  00000+0  12707-2 0  9994
2 63285  43.0008 242.8071 0002847 285.1887  74.8650 15.27593272 56166
